SIRION PATHFINDER-2     
1 43759U 18099B   26131.37736286  .00002651  00000+0  14860-3 0  9995
2 43759  97.4284 181.3140 0010336  72.4563 287.7798 15.14205890407051
CORVUS BC4              
1 43767U 18099K   26131.06972625  .00003194  00000+0  18852-3 0  9997
2 43767  97.4100 175.1397 0009801 124.1393 236.0769 15.12188428406793
M2 PATHFINDER           
1 45727U 20037E   26131.26960602  .00001881  00000+0  13878-3 0  9998
2 45727  97.8165 322.0884 0010246 278.8245  81.1820 15.04513075319946
NETSAT-4                
1 46504U 20068U   26131.22973328  .00011889  00000+0  27496-3 0  9991
2 46504  97.8621 136.5388 0007676  95.0170 265.1952 15.42631433310079
NETSAT-3                
1 46505U 20068V   26130.94732316  .00011969  00000+0  28840-3 0  9993
2 46505  97.8671 134.4998 0007508 108.3847 251.8215 15.41395029309947
NETSAT-1                
1 46506U 20068W   26131.47962740  .00008038  00000+0  24890-3 0  9993
2 46506  97.8754 129.8267 0006701 125.9205 234.2659 15.33739661309676
NETSAT-2                
1 46507U 20068X   26131.44598998  .00014586  00000+0  31710-3 0  9995
2 46507  97.8636 136.5433 0006172 114.8429 245.3460 15.44431577310068
GREENCUBE (IO-117)      
1 53109U 22080E   26131.45410626 -.00000003  00000+0  00000+0 0  9993
2 53109  70.1441 311.0256 0008876 298.1354  61.8409  6.42583318 89708
SITRO-AIS 5 (KATYS)     
1 57176U 23091L   26131.48650538  .00006657  00000+0  24167-3 0  9999
2 57176  97.5083 195.0582 0010607 225.4628 134.5746 15.28604131158738
SITRO-AIS 6 (CHIRKIN)   
1 57192U 23091AC  26131.51390100  .00003495  00000+0  14182-3 0  9990
2 57192  97.5090 194.3946 0010765 229.0189 131.0118 15.25239737158690
SITRO-AIS 8 (ANOKHIN)   
1 57193U 23091AD  26131.50043035  .00008136  00000+0  27274-3 0  9995
2 57193  97.5077 196.5165 0009921 220.4996 139.5507 15.31136304158830
SITRO-AIS 7 (FARTUSHNIY)
1 57194U 23091AE  26131.50976464  .00003240  00000+0  13288-3 0  9998
2 57194  97.5088 194.2338 0010582 230.3142 129.7163 15.24945808158689
SITRO-AIS 10 (BURDAEV)  
1 57199U 23091AK  26131.48615926  .00012240  00000+0  33774-3 0  9995
2 57199  97.5098 201.1903 0006892 191.1507 168.9586 15.37218321159120
SITRO-AIS 9 (SHCHUKIN)  
1 57201U 23091AM  26131.50142307  .00011374  00000+0  31862-3 0  9993
2 57201  97.5095 200.9634 0007111 191.8905 168.2172 15.36763905159118
SITRO-AIS 12 (SMIRENNIY)
1 57204U 23091AQ  26131.43378985  .00011907  00000+0  33042-3 0  9995
2 57204  97.5107 201.3388 0006915 185.9629 174.1534 15.37047107159123
SITRO-AIS 11 (SHEFFER)  
1 57208U 23091AU  26131.52202532  .00011747  00000+0  32193-3 0  9991
2 57208  97.5105 201.6534 0006839 185.3537 174.7635 15.37440266159152
SITRO-AIS 25            
1 59066U 24039R   26131.52362022  .00002838  00000+0  22152-3 0  9994
2 59066  95.3921 209.9024 0147523  96.2688 265.5364 14.93252523119259
SITRO-AIS 26            
1 59067U 24039S   26131.52006589  .00002997  00000+0  23486-3 0  9995
2 59067  95.3926 209.8050 0147874  96.8105 264.9971 14.93055776119249
SITRO-AIS 27            
1 59068U 24039T   26131.50049826  .00003715  00000+0  28794-3 0  9991
2 59068  95.3922 210.0462 0147017  95.6101 266.1911 14.93465513119263
SITRO-AIS 28            
1 59071U 24039U   26131.54578425  .00003195  00000+0  24795-3 0  9990
2 59071  95.3924 210.1228 0146770  95.3146 266.4845 14.93499573119274
GRBBETA                 
1 60237U 24128C   26131.31542566  .00002478  00000+0  17862-3 0  9997
2 60237  61.9910 345.6011 0045463 127.0344 233.4921 15.06332592100718
OOV-CUBE (TUBSAT-30)    
1 60240U 24128F   26131.32352466  .00001496  00000+0  12494-3 0  9995
2 60240  61.9952 354.0969 0049086 125.7149 234.8524 15.02583341100571
ROBUSTA-3A (MEDITERRAN*)
1 60243U 24128J   26131.28363676  .00004816  00000+0  29230-3 0  9993
2 60243  61.9875 338.6897 0046293 120.8297 239.7365 15.11090659100845
LASARSAT                
1 62391U 24247Q   26131.31970505  .00020807  00000+0  45148-3 0  9994
2 62391  44.9739 109.0045 0004563 106.4234 253.7156 15.44090423 77618
CROCUBE                 
1 62394U 24247T   26131.35864485  .00023751  00000+0  48719-3 0  9998
2 62394  44.9712 106.6663 0004284 108.2079 251.9277 15.45671989 77648
FORESAIL-1 PRIME        
1 66778U 25276DS  26131.16080920  .00003226  00000+0  16033-3 0  9993
2 66778  97.4207 205.1173 0001627 194.9877 165.1309 15.18357545 24785
KNACKSAT-2              
1 67683U 98067XZ  26131.21828951  .00027800  00000+0  38508-3 0  9992
2 67683  51.6281 119.9512 0012609  61.9359 298.2906 15.56780385 14519
